CCSDS_OMM_VERS = 2.0
CREATION_DATE  = 
ORIGINATOR     = 

OBJECT_NAME    = H-2A R/B
OBJECT_ID      = 2012-025E
CENTER_NAME    = EARTH
REF_FRAME      = TEME
TIME_SYSTEM    = UTC
MEAN_ELEMENT_THEORY = SGP/SGP4

EPOCH          = 2025-11-11T07:14:09.791808
MEAN_MOTION    = 14.94112537
ECCENTRICITY   = .00451031
INCLINATION    = 98.4555
RA_OF_ASC_NODE = 268.1243
ARG_OF_PERICENTER = 342.1086
MEAN_ANOMALY   = 17.8542

EPHEMERIS_TYPE = 0
CLASSIFICATION_TYPE = U
NORAD_CAT_ID   = 38341
ELEMENT_SET_NO = 999
REV_AT_EPOCH   = 73053
BSTAR          = .62127528E-3
MEAN_MOTION_DOT = .671E-4
MEAN_MOTION_DDOT = 0

CCSDS_OMM_VERS = 2.0
CREATION_DATE  = 
ORIGINATOR     = 

OBJECT_NAME    = SHIJIAN-16 (SJ-16)
OBJECT_ID      = 2013-057A
CENTER_NAME    = EARTH
REF_FRAME      = TEME
TIME_SYSTEM    = UTC
MEAN_ELEMENT_THEORY = SGP/SGP4

EPOCH          = 2025-11-11T06:52:07.732704
MEAN_MOTION    = 14.91823717
ECCENTRICITY   = .00163504
INCLINATION    = 74.9739
RA_OF_ASC_NODE = 49.1597
ARG_OF_PERICENTER = 36.3662
MEAN_ANOMALY   = 323.8633

EPHEMERIS_TYPE = 0
CLASSIFICATION_TYPE = U
NORAD_CAT_ID   = 39358
ELEMENT_SET_NO = 999
REV_AT_EPOCH   = 65384
BSTAR          = .37485409E-3
MEAN_MOTION_DOT = .3766E-4
MEAN_MOTION_DDOT = 0

CCSDS_OMM_VERS = 2.0
CREATION_DATE  = 
ORIGINATOR     = 

OBJECT_NAME    = SL-4 R/B
OBJECT_ID      = 2014-021B
CENTER_NAME    = EARTH
REF_FRAME      = TEME
TIME_SYSTEM    = UTC
MEAN_ELEMENT_THEORY = SGP/SGP4

EPOCH          = 2025-11-11T01:30:37.339488
MEAN_MOTION    = 15.35491575
ECCENTRICITY   = .01043364
INCLINATION    = 51.6068
RA_OF_ASC_NODE = 194.4119
ARG_OF_PERICENTER = 32.1981
MEAN_ANOMALY   = 328.5315

EPHEMERIS_TYPE = 0
CLASSIFICATION_TYPE = U
NORAD_CAT_ID   = 39679
ELEMENT_SET_NO = 999
REV_AT_EPOCH   = 63802
BSTAR          = .46543586E-3
MEAN_MOTION_DOT = .1914E-3
MEAN_MOTION_DDOT = 0

CCSDS_OMM_VERS = 2.0
CREATION_DATE  = 
ORIGINATOR     = 

OBJECT_NAME    = ALOS-2
OBJECT_ID      = 2014-029A
CENTER_NAME    = EARTH
REF_FRAME      = TEME
TIME_SYSTEM    = UTC
MEAN_ELEMENT_THEORY = SGP/SGP4

EPOCH          = 2025-11-11T07:02:59.667360
MEAN_MOTION    = 14.79462146
ECCENTRICITY   = .00013407
INCLINATION    = 97.9228
RA_OF_ASC_NODE = 50.5866
ARG_OF_PERICENTER = 97.5096
MEAN_ANOMALY   = 262.6268

EPHEMERIS_TYPE = 0
CLASSIFICATION_TYPE = U
NORAD_CAT_ID   = 39766
ELEMENT_SET_NO = 999
REV_AT_EPOCH   = 61936
BSTAR          = .57436788E-3
MEAN_MOTION_DOT = .424E-4
MEAN_MOTION_DDOT = 0

CCSDS_OMM_VERS = 2.0
CREATION_DATE  = 
ORIGINATOR     = 

OBJECT_NAME    = YAOGAN-29
OBJECT_ID      = 2015-069A
CENTER_NAME    = EARTH
REF_FRAME      = TEME
TIME_SYSTEM    = UTC
MEAN_ELEMENT_THEORY = SGP/SGP4

EPOCH          = 2025-11-11T07:22:20.834112
MEAN_MOTION    = 14.82829034
ECCENTRICITY   = .00022457
INCLINATION    = 98.0253
RA_OF_ASC_NODE = 338.3729
ARG_OF_PERICENTER = 50.1870
MEAN_ANOMALY   = 309.9540

EPHEMERIS_TYPE = 0
CLASSIFICATION_TYPE = U
NORAD_CAT_ID   = 41038
ELEMENT_SET_NO = 999
REV_AT_EPOCH   = 53833
BSTAR          = .11906944E-3
MEAN_MOTION_DOT = .909E-5
MEAN_MOTION_DDOT = 0

CCSDS_OMM_VERS = 2.0
CREATION_DATE  = 
ORIGINATOR     = 

OBJECT_NAME    = ASTRO-H (HITOMI)
OBJECT_ID      = 2016-012A
CENTER_NAME    = EARTH
REF_FRAME      = TEME
TIME_SYSTEM    = UTC
MEAN_ELEMENT_THEORY = SGP/SGP4

EPOCH          = 2025-11-10T16:18:31.393728
MEAN_MOTION    = 15.09057568
ECCENTRICITY   = .00098934
INCLINATION    = 31.0009
RA_OF_ASC_NODE = 44.0058
ARG_OF_PERICENTER = 215.2606
MEAN_ANOMALY   = 144.7378

EPHEMERIS_TYPE = 0
CLASSIFICATION_TYPE = U
NORAD_CAT_ID   = 41337
ELEMENT_SET_NO = 999
REV_AT_EPOCH   = 53423
BSTAR          = .30275103E-3
MEAN_MOTION_DOT = .5011E-4
MEAN_MOTION_DDOT = 0

CCSDS_OMM_VERS = 2.0
CREATION_DATE  = 
ORIGINATOR     = 

OBJECT_NAME    = HXMT (HUIYAN)
OBJECT_ID      = 2017-034A
CENTER_NAME    = EARTH
REF_FRAME      = TEME
TIME_SYSTEM    = UTC
MEAN_ELEMENT_THEORY = SGP/SGP4

EPOCH          = 2025-11-11T07:08:31.706016
MEAN_MOTION    = 15.15731012
ECCENTRICITY   = .00335312
INCLINATION    = 43.0153
RA_OF_ASC_NODE = 314.0497
ARG_OF_PERICENTER = 208.8722
MEAN_ANOMALY   = 151.0271

EPHEMERIS_TYPE = 0
CLASSIFICATION_TYPE = U
NORAD_CAT_ID   = 42758
ELEMENT_SET_NO = 999
REV_AT_EPOCH   = 46456
BSTAR          = .47522575E-3
MEAN_MOTION_DOT = .9126E-4
MEAN_MOTION_DDOT = 0

CCSDS_OMM_VERS = 2.0
CREATION_DATE  = 
ORIGINATOR     = 

OBJECT_NAME    = CZ-2C R/B
OBJECT_ID      = 2018-054D
CENTER_NAME    = EARTH
REF_FRAME      = TEME
TIME_SYSTEM    = UTC
MEAN_ELEMENT_THEORY = SGP/SGP4

EPOCH          = 2025-11-11T06:29:22.276608
MEAN_MOTION    = 15.67221965
ECCENTRICITY   = .00241513
INCLINATION    = 35.1367
RA_OF_ASC_NODE = 33.1831
ARG_OF_PERICENTER = 197.5295
MEAN_ANOMALY   = 162.4604

EPHEMERIS_TYPE = 0
CLASSIFICATION_TYPE = U
NORAD_CAT_ID   = 43521
ELEMENT_SET_NO = 999
REV_AT_EPOCH   = 41010
BSTAR          = .85238439E-3
MEAN_MOTION_DOT = .97383E-3
MEAN_MOTION_DDOT = 0

CCSDS_OMM_VERS = 2.0
CREATION_DATE  = 
ORIGINATOR     = 

OBJECT_NAME    = SAOCOM 1A
OBJECT_ID      = 2018-076A
CENTER_NAME    = EARTH
REF_FRAME      = TEME
TIME_SYSTEM    = UTC
MEAN_ELEMENT_THEORY = SGP/SGP4

EPOCH          = 2025-11-11T06:42:31.142304
MEAN_MOTION    = 14.82159681
ECCENTRICITY   = .00013624
INCLINATION    = 97.8866
RA_OF_ASC_NODE = 140.1578
ARG_OF_PERICENTER = 90.8003
MEAN_ANOMALY   = 269.3366

EPHEMERIS_TYPE = 0
CLASSIFICATION_TYPE = U
NORAD_CAT_ID   = 43641
ELEMENT_SET_NO = 999
REV_AT_EPOCH   = 38382
BSTAR          = .12664376E-3
MEAN_MOTION_DOT = .956E-5
MEAN_MOTION_DDOT = 0

CCSDS_OMM_VERS = 2.0
CREATION_DATE  = 
ORIGINATOR     = 

OBJECT_NAME    = H-2A R/B
OBJECT_ID      = 2018-084L
CENTER_NAME    = EARTH
REF_FRAME      = TEME
TIME_SYSTEM    = UTC
MEAN_ELEMENT_THEORY = SGP/SGP4

EPOCH          = 2025-11-11T05:45:28.277568
MEAN_MOTION    = 15.35809687
ECCENTRICITY   = .00291922
INCLINATION    = 98.8806
RA_OF_ASC_NODE = 142.8300
ARG_OF_PERICENTER = 73.2480
MEAN_ANOMALY   = 287.1958

EPHEMERIS_TYPE = 0
CLASSIFICATION_TYPE = U
NORAD_CAT_ID   = 43682
ELEMENT_SET_NO = 999
REV_AT_EPOCH   = 38756
BSTAR          = .71022243E-3
MEAN_MOTION_DOT = .25043E-3
MEAN_MOTION_DDOT = 0

CCSDS_OMM_VERS = 2.0
CREATION_DATE  = 
ORIGINATOR     = 

OBJECT_NAME    = SAOCOM 1B
OBJECT_ID      = 2020-059A
CENTER_NAME    = EARTH
REF_FRAME      = TEME
TIME_SYSTEM    = UTC
MEAN_ELEMENT_THEORY = SGP/SGP4

EPOCH          = 2025-11-11T05:50:19.786848
MEAN_MOTION    = 14.82166843
ECCENTRICITY   = .00014696
INCLINATION    = 97.8854
RA_OF_ASC_NODE = 139.2243
ARG_OF_PERICENTER = 87.5765
MEAN_ANOMALY   = 272.5616

EPHEMERIS_TYPE = 0
CLASSIFICATION_TYPE = U
NORAD_CAT_ID   = 46265
ELEMENT_SET_NO = 999
REV_AT_EPOCH   = 28120
BSTAR          = .12794831E-3
MEAN_MOTION_DOT = .967E-5
MEAN_MOTION_DDOT = 0

CCSDS_OMM_VERS = 2.0
CREATION_DATE  = 
ORIGINATOR     = 

OBJECT_NAME    = CSS (TIANHE)
OBJECT_ID      = 2021-035A
CENTER_NAME    = EARTH
REF_FRAME      = TEME
TIME_SYSTEM    = UTC
MEAN_ELEMENT_THEORY = SGP/SGP4

EPOCH          = 2025-11-11T01:42:55.433952
MEAN_MOTION    = 15.60869070
ECCENTRICITY   = .00046778
INCLINATION    = 41.4650
RA_OF_ASC_NODE = 208.9545
ARG_OF_PERICENTER = 2.0482
MEAN_ANOMALY   = 358.0375

EPHEMERIS_TYPE = 0
CLASSIFICATION_TYPE = U
NORAD_CAT_ID   = 48274
ELEMENT_SET_NO = 999
REV_AT_EPOCH   = 25908
BSTAR          = .40806182E-3
MEAN_MOTION_DOT = .34921E-3
MEAN_MOTION_DDOT = 0

