H-2A R/B                
1 38341U 12025E   25315.30150222  .00006710  00000+0  62128-3 0  9995
2 38341  98.4555 268.1243 0045103 342.1086  17.8542 14.94112537730532
SHIJIAN-16 (SJ-16)      
1 39358U 13057A   25315.28620061  .00003766  00000+0  37485-3 0  9996
2 39358  74.9739  49.1597 0016350  36.3662 323.8633 14.91823717653842
SL-4 R/B                
1 39679U 14021B   25315.06293217  .00019140  00000+0  46544-3 0  9998
2 39679  51.6068 194.4119 0104336  32.1981 328.5315 15.35491575638023
ALOS-2                  
1 39766U 14029A   25315.29374615  .00004240  00000+0  57437-3 0  9998
2 39766  97.9228  50.5866 0001340  97.5096 262.6268 14.79462146619365
YAOGAN-29               
1 41038U 15069A   25315.30718558  .00000909  00000+0  11907-3 0  9998
2 41038  98.0253 338.3729 0002245  50.1870 309.9540 14.82829034538337
ASTRO-H (HITOMI)        
1 41337U 16012A   25314.67953002  .00005011  00000+0  30275-3 0  9991
2 41337  31.0009  44.0058 0009893 215.2606 144.7378 15.09057568534232
HXMT (HUIYAN)           
1 42758U 17034A   25315.29758919  .00009126  00000+0  47523-3 0  9998
2 42758  43.0153 314.0497 0033531 208.8722 151.0271 15.15731012464564
CZ-2C R/B               
1 43521U 18054D   25315.27039672  .00097383  00000+0  85238-3 0  9993
2 43521  35.1367  33.1831 0024151 197.5295 162.4604 15.67221965410105
SAOCOM 1A               
1 43641U 18076A   25315.27952711  .00000956  00000+0  12664-3 0  9991
2 43641  97.8866 140.1578 0001362  90.8003 269.3366 14.82159681383826
H-2A R/B                
1 43682U 18084L   25315.23991062  .00025043  00000+0  71022-3 0  9990
2 43682  98.8806 142.8300 0029192  73.2480 287.1958 15.35809687387560
SAOCOM 1B               
1 46265U 20059A   25315.24328457  .00000967  00000+0  12795-3 0  9998
2 46265  97.8854 139.2243 0001469  87.5765 272.5616 14.82166843281203
CSS (TIANHE)            
1 48274U 21035A   25315.07147493  .00034921  00000+0  40806-3 0  9996
2 48274  41.4650 208.9545 0004677   2.0482 358.0375 15.60869070259087
